{"type": "FeatureCollection", "features": [ {"type": "Feature", "properties": {"norad_id": 36402, "name": "COSMOS 2460 (732)", "group": "gnss", "lat": -45.53952387974796, "lon": 168.51397559125047, "alt_km": 19129.535188257603, "timestamp": "2025-12-09T09:46:47.888136+00:00", "meta": {"OBJECT_NAME": "COSMOS 2460 (732)", "OBJECT_ID": "2010-007C", "EPOCH": "2025-12-09T02:35:27.197952", "MEAN_MOTION": 2.13105905, "ECCENTRICITY": 0.0002812, "INCLINATION": 65.5319, "RA_OF_ASC_NODE": 320.8965, "ARG_OF_PERICENTER": 271.4653, "MEAN_ANOMALY": 90.3471, "EPHEMERIS_TYPE": 0, "CLASSIFICATION_TYPE": "U", "NORAD_CAT_ID": 36402, "ELEMENT_SET_NO": 999, "REV_AT_EPOCH": 12268, "BSTAR": 0, "MEAN_MOTION_DOT": -4.8e-07, "MEAN_MOTION_DDOT": 0}, "tle": {"line1": "1 36402U 10007C   25343.10795368 -.00000048  00000+0  00000+0 0  9990", "line2": "2 36402  65.5319 320.8965 0002812 271.4653  90.3471  2.13105905122689"}}, "geometry": {"type": "Point", "coordinates": [168.51397559125047, -45.53952387974796]}}, {"type": "Feature", "properties": {"norad_id": 36585, "name": "GPS BIIF-1  (PRN 25)", "group": "gnss", "lat": -46.48600416582218, "lon": 167.0242185399181, "alt_km": 20393.0347815561, "timestamp": "2025-12-09T09:46:47.888148+00:00", "meta": {"OBJECT_NAME": "GPS BIIF-1  (PRN 25)", "OBJECT_ID": "2010-022A", "EPOCH": "2025-12-09T03:49:25.990176", "MEAN_MOTION": 2.0055298, "ECCENTRICITY": 0.0125962, "INCLINATION": 54.3007, "RA_OF_ASC_NODE": 216.2184, "ARG_OF_PERICENTER": 65.0334, "MEAN_ANOMALY": 53.7315, "EPHEMERIS_TYPE": 0, "CLASSIFICATION_TYPE": "U", "NORAD_CAT_ID": 36585, "ELEMENT_SET_NO": 999, "REV_AT_EPOCH": 11378, "BSTAR": 0, "MEAN_MOTION_DOT": 1.4e-07, "MEAN_MOTION_DDOT": 0}, "tle": {"line1": "1 36585U 10022A   25343.15932859  .00000014  00000+0  00000+0 0  9994", "line2": "2 36585  54.3007 216.2184 0125962  65.0334  53.7315  2.00552980113783"}}, "geometry": {"type": "Point", "coordinates": [167.0242185399181, -46.48600416582218]}}, {"type": "Feature", "properties": {"norad_id": 36828, "name": "BEIDOU-2 IGSO-1 (C06)", "group": "gnss", "lat": 9.817918217460385, "lon": -22.490785092695923, "alt_km": 35639.16130499972, "timestamp": "2025-12-09T09:46:47.888160+00:00", "meta": {"OBJECT_NAME": "BEIDOU-2 IGSO-1 (C06)", "OBJECT_ID": "2010-036A", "EPOCH": "2025-12-08T22:40:34.354848", "MEAN_MOTION": 1.00277328, "ECCENTRICITY": 0.00512522, "INCLINATION": 54.2862, "RA_OF_ASC_NODE": 164.6817, "ARG_OF_PERICENTER": 215.9151, "MEAN_ANOMALY": 145.3362, "EPHEMERIS_TYPE": 0, "CLASSIFICATION_TYPE": "U", "NORAD_CAT_ID": 36828, "ELEMENT_SET_NO": 999, "REV_AT_EPOCH": 5619, "BSTAR": 0, "MEAN_MOTION_DOT": -6.9e-07, "MEAN_MOTION_DDOT": 0}, "tle": {"line1": "1 36828U 10036A   25342.94484207 -.00000069  00000+0  00000+0 0  9995", "line2": "2 36828  54.2862 164.6817 0051252 215.9151 145.3362  1.00277328 56193"}}, "geometry": {"type": "Point", "coordinates": [-22.490785092695923, 9.817918217460385]}}, {"type": "Feature", "properties": {"norad_id": 37210, "name": "BEIDOU-2 G4 (C04)", "group": "gnss", "lat": -2.220021334122375, "lon": 25.31678191589832, "alt_km": 35813.613737672924, "timestamp": "2025-12-09T09:46:47.888173+00:00", "meta": {"OBJECT_NAME": "BEIDOU-2 G4 (C04)", "OBJECT_ID": "2010-057A", "EPOCH": "2025-12-09T04:03:41.248224", "MEAN_MOTION": 1.002712, "ECCENTRICITY": 0.0010979, "INCLINATION": 3.1754, "RA_OF_ASC_NODE": 69.9401, "ARG_OF_PERICENTER": 189.6703, "MEAN_ANOMALY": 39.5481, "EPHEMERIS_TYPE": 0, "CLASSIFICATION_TYPE": "U", "NORAD_CAT_ID": 37210, "ELEMENT_SET_NO": 999, "REV_AT_EPOCH": 5538, "BSTAR": 0, "MEAN_MOTION_DOT": -1.1e-06, "MEAN_MOTION_DDOT": 0}, "tle": {"line1": "1 37210U 10057A   25343.16922741 -.00000110  00000+0  00000+0 0  9996", "line2": "2 37210   3.1754  69.9401 0010979 189.6703  39.5481  1.00271200 55388"}}, "geometry": {"type": "Point", "coordinates": [25.31678191589832, -2.220021334122375]}}, {"type": "Feature", "properties": {"norad_id": 37256, "name": "BEIDOU-2 IGSO-2 (C07)", "group": "gnss", "lat": 39.09547486629504, "lon": -38.65949149699901, "alt_km": 35969.48322277794, "timestamp": "2025-12-09T09:46:47.888186+00:00", "meta": {"OBJECT_NAME": "BEIDOU-2 IGSO-2 (C07)", "OBJECT_ID": "2010-068A", "EPOCH": "2025-12-03T17:22:36.027840", "MEAN_MOTION": 1.0028872, "ECCENTRICITY": 0.00492449, "INCLINATION": 47.9042, "RA_OF_ASC_NODE": 274.2614, "ARG_OF_PERICENTER": 216.1411, "MEAN_ANOMALY": 310.24, "EPHEMERIS_TYPE": 0, "CLASSIFICATION_TYPE": "U", "NORAD_CAT_ID": 37256, "ELEMENT_SET_NO": 999, "REV_AT_EPOCH": 5483, "BSTAR": 0, "MEAN_MOTION_DOT": -2.25e-06, "MEAN_MOTION_DDOT": 0}, "tle": {"line1": "1 37256U 10068A   25337.72402810 -.00000225  00000+0  00000+0 0  9990", "line2": "2 37256  47.9042 274.2614 0049244 216.1411 310.2400  1.00288720 54834"}}, "geometry": {"type": "Point", "coordinates": [-38.65949149699901, 39.09547486629504]}}, {"type": "Feature", "properties": {"norad_id": 37384, "name": "BEIDOU-2 IGSO-3 (C08)", "group": "gnss", "lat": -55.58446248525834, "lon": -8.465668851673252, "alt_km": 35828.02407242944, "timestamp": "2025-12-09T09:46:47.888199+00:00", "meta": {"OBJECT_NAME": "BEIDOU-2 IGSO-3 (C08)", "OBJECT_ID": "2011-013A", "EPOCH": "2025-12-07T14:00:04.361184", "MEAN_MOTION": 1.00271435, "ECCENTRICITY": 0.0035334, "INCLINATION": 62.1366, "RA_OF_ASC_NODE": 41.9657, "ARG_OF_PERICENTER": 187.0632, "MEAN_ANOMALY": 165.2408, "EPHEMERIS_TYPE": 0, "CLASSIFICATION_TYPE": "U", "NORAD_CAT_ID": 37384, "ELEMENT_SET_NO": 999, "REV_AT_EPOCH": 5373, "BSTAR": 0, "MEAN_MOTION_DOT": -1.91e-06, "MEAN_MOTION_DDOT": 0}, "tle": {"line1": "1 37384U 11013A   25341.58338381 -.00000191  00000+0  00000+0 0  9995", "line2": "2 37384  62.1366  41.9657 0035334 187.0632 165.2408  1.00271435 53735"}}, "geometry": {"type": "Point", "coordinates": [-8.465668851673252, -55.58446248525834]}}, {"type": "Feature", "properties": {"norad_id": 37605, "name": "GSAT-8 (GAGAN/PRN 127)", "group": "gnss", "lat": -0.4714690621900221, "lon": -79.78405579680513, "alt_km": 35749.54474643642, "timestamp": "2025-12-09T09:46:47.888212+00:00", "meta": {"OBJECT_NAME": "GSAT-8 (GAGAN/PRN 127)", "OBJECT_ID": "2011-022A", "EPOCH": "2025-12-08T19:00:07.325280", "MEAN_MOTION": 1.00272295, "ECCENTRICITY": 0.00089138, "INCLINATION": 1.6395, "RA_OF_ASC_NODE": 84.2307, "ARG_OF_PERICENTER": 180.6821, "MEAN_ANOMALY": 153.0058, "EPHEMERIS_TYPE": 0, "CLASSIFICATION_TYPE": "U", "NORAD_CAT_ID": 37605, "ELEMENT_SET_NO": 999, "REV_AT_EPOCH": 5130, "BSTAR": 0, "MEAN_MOTION_DOT": 8.6e-07, "MEAN_MOTION_DDOT": 0}, "tle": {"line1": "1 37605U 11022A   25342.79175145  .00000086  00000+0  00000+0 0  9994", "line2": "2 37605   1.6395  84.2307 0008913 180.6821 153.0058  1.00272295 51307"}}, "geometry": {"type": "Point", "coordinates": [-79.78405579680513, -0.4714690621900221]}}, {"type": "Feature", "properties": {"norad_id": 37763, "name": "BEIDOU-2 IGSO-4 (C09)", "group": "gnss", "lat": 23.75414720576271, "lon": -30.904322652378973, "alt_km": 35661.74532946774, "timestamp": "2025-12-09T09:46:47.888225+00:00", "meta": {"OBJECT_NAME": "BEIDOU-2 IGSO-4 (C09)", "OBJECT_ID": "2011-038A", "EPOCH": "2025-12-01T12:32:09.960864", "MEAN_MOTION": 1.00284084, "ECCENTRICITY": 0.01488084, "INCLINATION": 54.5806, "RA_OF_ASC_NODE": 167.4476, "ARG_OF_PERICENTER": 230.2017, "MEAN_ANOMALY": 315.0405, "EPHEMERIS_TYPE": 0, "CLASSIFICATION_TYPE": "U", "NORAD_CAT_ID": 37763, "ELEMENT_SET_NO": 999, "REV_AT_EPOCH": 5266, "BSTAR": 0, "MEAN_MOTION_DOT": 1.01e-06, "MEAN_MOTION_DDOT": 0}, "tle": {"line1": "1 37763U 11038A   25335.52233751  .00000101  00000+0  00000+0 0  9995", "line2": "2 37763  54.5806 167.4476 0148808 230.2017 315.0405  1.00284084 52669"}}, "geometry": {"type": "Point", "coordinates": [-30.904322652378973, 23.75414720576271]}}, {"type": "Feature", "properties": {"norad_id": 37846, "name": "GSAT0101 (GALILEO-PFM)", "group": "gnss", "lat": 13.401385841486894, "lon": -4.2022976028641725, "alt_km": 23216.87538198174, "timestamp": "2025-12-09T09:46:47.888244+00:00", "meta": {"OBJECT_NAME": "GSAT0101 (GALILEO-PFM)", "OBJECT_ID": "2011-060A", "EPOCH": "2025-12-06T10:45:46.943136", "MEAN_MOTION": 1.70475516, "ECCENTRICITY": 0.00028809, "INCLINATION": 57.0541, "RA_OF_ASC_NODE": 346.9907, "ARG_OF_PERICENTER": 311.6243, "MEAN_ANOMALY": 48.3737, "EPHEMERIS_TYPE": 0, "CLASSIFICATION_TYPE": "U", "NORAD_CAT_ID": 37846, "ELEMENT_SET_NO": 999, "REV_AT_EPOCH": 8783, "BSTAR": 0, "MEAN_MOTION_DOT": -8.1e-07, "MEAN_MOTION_DDOT": 0}, "tle": {"line1": "1 37846U 11060A   25340.44845999 -.00000081  00000+0  00000+0 0  9990", "line2": "2 37846  57.0541 346.9907 0002880 311.6243  48.3737  1.70475516 87832"}}, "geometry": {"type": "Point", "coordinates": [-4.2022976028641725, 13.401385841486894]}}, {"type": "Feature", "properties": {"norad_id": 37847, "name": "GSAT0102 (GALILEO-FM2)", "group": "gnss", "lat": 47.5252707217939, "lon": 32.01155226906231, "alt_km": 23222.15303334292, "timestamp": "2025-12-09T09:46:47.888256+00:00", "meta": {"OBJECT_NAME": "GSAT0102 (GALILEO-FM2)", "OBJECT_ID": "2011-060B", "EPOCH": "2025-12-09T00:17:40.052832", "MEAN_MOTION": 1.70475785, "ECCENTRICITY": 0.0004909, "INCLINATION": 57.0543, "RA_OF_ASC_NODE": 346.9214, "ARG_OF_PERICENTER": 308.1942, "MEAN_ANOMALY": 230.7315, "EPHEMERIS_TYPE": 0, "CLASSIFICATION_TYPE": "U", "NORAD_CAT_ID": 37847, "ELEMENT_SET_NO": 999, "REV_AT_EPOCH": 8788, "BSTAR": 0, "MEAN_MOTION_DOT": -8.7e-07, "MEAN_MOTION_DDOT": 0}, "tle": {"line1": "1 37847U 11060B   25343.01226913 -.00000087  00000+0  00000+0 0  9992", "line2": "2 37847  57.0543 346.9214 0004909 308.1942 230.7315  1.70475785 87889"}}, "geometry": {"type": "Point", "coordinates": [32.01155226906231, 47.5252707217939]}}]}